{
  "type": "FeatureCollection",
  "features": [
    {
      "type": "Feature",
      "properties": {
        "norad_id": 66822,
        "name": "STARLINK-35958",
        "group": "last-30-days",
        "lat": -69.18081587712703,
        "lon": 106.26084286862071,
        "alt_km": 413.5471545332157,
        "timestamp": "2025-12-19T14:48:34.965063+00:00",
        "meta_object_name": "STARLINK-35958",
        "meta_object_id": "2025-280B",
        "meta_epoch": "2025-12-19T06:00:02.000160",
        "meta_mean_motion": 15.54523563,
        "meta_eccentricity": 0.00039218,
        "meta_inclination": 69.9994,
        "meta_ra_of_asc_node": 180.5849,
        "meta_arg_of_pericenter": 268.4664,
        "meta_mean_anomaly": 115.2142,
        "meta_ephemeris_type": 0,
        "meta_classification_type": "U",
        "meta_norad_cat_id": 66822,
        "meta_element_set_no": 999,
        "meta_rev_at_epoch": 394,
        "meta_bstar": -0.041866822,
        "meta_mean_motion_dot": -0.02419712,
        "meta_mean_motion_ddot": 0,
        "tle_line1": "1 66822U 25280B   25353.25002315 -.02419712  00000+0 -41867-1 0  9991",
        "tle_line2": "2 66822  69.9994 180.5849 0003921 268.4664 115.2142 15.54523563  3949"
      },
      "geometry": {
        "type": "Point",
        "coordinates": [
          106.26084286862071,
          -69.18081587712703
        ]
      }
    },
    {
      "type": "Feature",
      "properties": {
        "norad_id": 66823,
        "name": "STARLINK-35957",
        "group": "last-30-days",
        "lat": -68.58668454697553,
        "lon": 111.32841984638071,
        "alt_km": 413.6780196422069,
        "timestamp": "2025-12-19T14:48:34.965073+00:00",
        "meta_object_name": "STARLINK-35957",
        "meta_object_id": "2025-280C",
        "meta_epoch": "2025-12-19T06:00:02.000160",
        "meta_mean_motion": 15.54548215,
        "meta_eccentricity": 0.00038074,
        "meta_inclination": 69.9996,
        "meta_ra_of_asc_node": 180.5824,
        "meta_arg_of_pericenter": 268.0609,
        "meta_mean_anomaly": 117.5352,
        "meta_ephemeris_type": 0,
        "meta_classification_type": "U",
        "meta_norad_cat_id": 66823,
        "meta_element_set_no": 999,
        "meta_rev_at_epoch": 394,
        "meta_bstar": -0.042651405,
        "meta_mean_motion_dot": -0.02460903,
        "meta_mean_motion_ddot": 0,
        "tle_line1": "1 66823U 25280C   25353.25002315 -.02460903  00000+0 -42651-1 0  9992",
        "tle_line2": "2 66823  69.9996 180.5824 0003807 268.0609 117.5352 15.54548215  3942"
      },
      "geometry": {
        "type": "Point",
        "coordinates": [
          111.32841984638071,
          -68.58668454697553
        ]
      }
    },
    {
      "type": "Feature",
      "properties": {
        "norad_id": 66824,
        "name": "STARLINK-35896",
        "group": "last-30-days",
        "lat": -67.85289873093757,
        "lon": 116.07583770666183,
        "alt_km": 413.67298130014296,
        "timestamp": "2025-12-19T14:48:34.965084+00:00",
        "meta_object_name": "STARLINK-35896",
        "meta_object_id": "2025-280D",
        "meta_epoch": "2025-12-19T06:00:02.000160",
        "meta_mean_motion": 15.54529401,
        "meta_eccentricity": 0.00037845,
        "meta_inclination": 69.9993,
        "meta_ra_of_asc_node": 180.58,
        "meta_arg_of_pericenter": 267.6829,
        "meta_mean_anomaly": 119.8298,
        "meta_ephemeris_type": 0,
        "meta_classification_type": "U",
        "meta_norad_cat_id": 66824,
        "meta_element_set_no": 999,
        "meta_rev_at_epoch": 394,
        "meta_bstar": -0.042046019,
        "meta_mean_motion_dot": -0.02429027,
        "meta_mean_motion_ddot": 0,
        "tle_line1": "1 66824U 25280D   25353.25002315 -.02429027  00000+0 -42046-1 0  9993",
        "tle_line2": "2 66824  69.9993 180.5800 0003784 267.6829 119.8298 15.54529401  3947"
      },
      "geometry": {
        "type": "Point",
        "coordinates": [
          116.07583770666183,
          -67.85289873093757
        ]
      }
    },
    {
      "type": "Feature",
      "properties": {
        "norad_id": 66825,
        "name": "STARLINK-35476",
        "group": "last-30-days",
        "lat": -66.98871956309708,
        "lon": 120.51683129331553,
        "alt_km": 413.58897215392244,
        "timestamp": "2025-12-19T14:48:34.965093+00:00",
        "meta_object_name": "STARLINK-35476",
        "meta_object_id": "2025-280E",
        "meta_epoch": "2025-12-19T06:00:02.000160",
        "meta_mean_motion": 15.54529887,
        "meta_eccentricity": 0.00038823,
        "meta_inclination": 69.999,
        "meta_ra_of_asc_node": 180.5773,
        "meta_arg_of_pericenter": 270.3914,
        "meta_mean_anomaly": 119.038,
        "meta_ephemeris_type": 0,
        "meta_classification_type": "U",
        "meta_norad_cat_id": 66825,
        "meta_element_set_no": 999,
        "meta_rev_at_epoch": 379,
        "meta_bstar": -0.042065343,
        "meta_mean_motion_dot": -0.02430146,
        "meta_mean_motion_ddot": 0,
        "tle_line1": "1 66825U 25280E   25353.25002315 -.02430146  00000+0 -42065-1 0  9999",
        "tle_line2": "2 66825  69.9990 180.5773 0003882 270.3914 119.0380 15.54529887  3794"
      },
      "geometry": {
        "type": "Point",
        "coordinates": [
          120.51683129331553,
          -66.98871956309708
        ]
      }
    },
    {
      "type": "Feature",
      "properties": {
        "norad_id": 66826,
        "name": "STARLINK-35898",
        "group": "last-30-days",
        "lat": -66.00995055604567,
        "lon": 124.63367530195686,
        "alt_km": 413.6241609488443,
        "timestamp": "2025-12-19T14:48:34.965105+00:00",
        "meta_object_name": "STARLINK-35898",
        "meta_object_id": "2025-280F",
        "meta_epoch": "2025-12-19T06:00:02.000160",
        "meta_mean_motion": 15.54522075,
        "meta_eccentricity": 0.00038325,
        "meta_inclination": 69.9991,
        "meta_ra_of_asc_node": 180.575,
        "meta_arg_of_pericenter": 270.3347,
        "meta_mean_anomaly": 121.013,
        "meta_ephemeris_type": 0,
        "meta_classification_type": "U",
        "meta_norad_cat_id": 66826,
        "meta_element_set_no": 999,
        "meta_rev_at_epoch": 394,
        "meta_bstar": -0.041864695,
        "meta_mean_motion_dot": -0.0241939,
        "meta_mean_motion_ddot": 0,
        "tle_line1": "1 66826U 25280F   25353.25002315 -.02419390  00000+0 -41865-1 0  9995",
        "tle_line2": "2 66826  69.9991 180.5750 0003832 270.3347 121.0130 15.54522075  3941"
      },
      "geometry": {
        "type": "Point",
        "coordinates": [
          124.63367530195686,
          -66.00995055604567
        ]
      }
    },
    {
      "type": "Feature",
      "properties": {
        "norad_id": 66827,
        "name": "STARLINK-35959",
        "group": "last-30-days",
        "lat": -64.92772730911499,
        "lon": 128.4375521793692,
        "alt_km": 413.60785339340873,
        "timestamp": "2025-12-19T14:48:34.965115+00:00",
        "meta_object_name": "STARLINK-35959",
        "meta_object_id": "2025-280G",
        "meta_epoch": "2025-12-19T06:00:02.000160",
        "meta_mean_motion": 15.5452583,
        "meta_eccentricity": 0.00038846,
        "meta_inclination": 69.9994,
        "meta_ra_of_asc_node": 180.5726,
        "meta_arg_of_pericenter": 269.7092,
        "meta_mean_anomaly": 123.5537,
        "meta_ephemeris_type": 0,
        "meta_classification_type": "U",
        "meta_norad_cat_id": 66827,
        "meta_element_set_no": 999,
        "meta_rev_at_epoch": 394,
        "meta_bstar": -0.041959529,
        "meta_mean_motion_dot": -0.02424511,
        "meta_mean_motion_ddot": 0,
        "tle_line1": "1 66827U 25280G   25353.25002315 -.02424511  00000+0 -41960-1 0  9993",
        "tle_line2": "2 66827  69.9994 180.5726 0003884 269.7092 123.5537 15.54525830  3944"
      },
      "geometry": {
        "type": "Point",
        "coordinates": [
          128.4375521793692,
          -64.92772730911499
        ]
      }
    },
    {
      "type": "Feature",
      "properties": {
        "norad_id": 66828,
        "name": "STARLINK-35982",
        "group": "last-30-days",
        "lat": -62.507011241685774,
        "lon": 135.1410518025062,
        "alt_km": 413.62192102063,
        "timestamp": "2025-12-19T14:48:34.965125+00:00",
        "meta_object_name": "STARLINK-35982",
        "meta_object_id": "2025-280H",
        "meta_epoch": "2025-12-19T06:00:02.000160",
        "meta_mean_motion": 15.54527264,
        "meta_eccentricity": 0.00038823,
        "meta_inclination": 69.9992,
        "meta_ra_of_asc_node": 180.5682,
        "meta_arg_of_pericenter": 270.214,
        "meta_mean_anomaly": 126.8825,
        "meta_ephemeris_type": 0,
        "meta_classification_type": "U",
        "meta_norad_cat_id": 66828,
        "meta_element_set_no": 999,
        "meta_rev_at_epoch": 394,
        "meta_bstar": -0.041995752,
        "meta_mean_motion_dot": -0.02426442,
        "meta_mean_motion_ddot": 0,
        "tle_line1": "1 66828U 25280H   25353.25002315 -.02426442  00000+0 -41996-1 0  9998",
        "tle_line2": "2 66828  69.9992 180.5682 0003882 270.2140 126.8825 15.54527264  3942"
      },
      "geometry": {
        "type": "Point",
        "coordinates": [
          135.1410518025062,
          -62.507011241685774
        ]
      }
    }
  ]
}